0 FENGYUN 1C DEB
1 31980U 99025CPH 13283.06466976  .00000124  00000-0  20194-3 0  2514
2 31980 097.6161 019.8617 0433279 323.8490 033.4220 13.28354000305673
0 FENGYUN 1C DEB
1 31980U 99025CPH 13287.50845512  .00000151  00000-0  23591-3 0  2530
2 31980 097.6134 023.1429 0436897 312.3037 044.2089 13.28357210306266
0 FENGYUN 1C DEB
1 31980U 99025CPH 13294.51312422  .00000262  00000-0  38015-3 0  2549
2 31980 097.6164 028.3380 0438143 294.5934 061.1734 13.28364867307199
